STARLINK-36806          
1 67965U 26038E   26077.50003471 -.02272550  00000+0 -22045-1 0  9992
2 67965  97.2856  88.2442 0001446  87.6428 284.0829 15.69838989  4610
STARLINK-36820          
1 67966U 26038F   26077.50003471 -.02269638  00000+0 -21673-1 0  9992
2 67966  97.2855  88.2472 0001392  85.7774 293.3248 15.70210871  4610
STARLINK-36819          
1 67967U 26038G   26077.50003471  .00086709  00000+0  15821-2 0  9994
2 67967  97.2848  88.1560 0001161  84.1140  75.4769 15.49123905  4618
STARLINK-36812          
1 67968U 26038H   26077.50003471 -.02278348  00000+0 -21407-1 0  9997
2 67968  97.2855  88.2520 0001522  79.2336 313.2133 15.70609891  4612
STARLINK-36709          
1 67969U 26038J   26077.50003471 -.02288747  00000+0 -21724-1 0  9994
2 67969  97.2858  88.2578 0001595  75.9209 329.7394 15.70384710  4612
STARLINK-36319          
1 67970U 26038K   26077.50003471 -.02317391  00000+0 -26811-1 0  9996
2 67970  97.2845  88.2448 0001440  84.3914 286.6992 15.65015957  4581
STARLINK-36710          
1 67971U 26038L   26077.50003471 -.02294685  00000+0 -20940-1 0  9994
2 67971  97.2854  88.2641 0001592  71.1956 347.3713 15.71327797  4610
STARLINK-36894          
1 67972U 26038M   26077.50003471 -.02287184  00000+0 -20537-1 0  9993
2 67972  97.2854  88.2651 0001510  82.6312 342.9155 15.71697823  4616
STARLINK-36900          
1 67973U 26038N   26077.50003471 -.02139170  00000+0 -37119-1 0  9999
2 67973  97.2844  88.2153 0002085 149.2744 139.0207 15.54142132  4612
STARLINK-36901          
1 67974U 26038P   26077.50003471 -.02301501  00000+0 -20595-1 0  9999
2 67974  97.2855  88.2671 0001716  76.2724 355.5031 15.71798779  4610
STARLINK-36883          
1 67975U 26038Q   26077.50003471 -.02297299  00000+0 -24034-1 0  9990
2 67975  97.2850  88.2760 0001799  75.9052  17.8150 15.68054850  4617
STARLINK-36880          
1 67976U 26038R   26077.50003471 -.01753993  00000+0 -34566-1 0  9999
2 67976  97.2847  88.1908 0002217  82.7160 153.8092 15.50496249  4618
